{
  "type": "FeatureCollection",
  "features": [
    {
      "type": "Feature",
      "properties": {
        "norad_id": 40010,
        "name": "KAZEOSAT 2",
        "group": "resource",
        "lat": 59.55329897726093,
        "lon": 28.9916456104089,
        "alt_km": 605.2358694954664,
        "timestamp": "2025-12-17T21:39:45.365755+00:00",
        "meta_object_name": "KAZEOSAT 2",
        "meta_object_id": "2014-033A",
        "meta_epoch": "2025-12-17T14:39:28.697184",
        "meta_mean_motion": 14.85178619,
        "meta_eccentricity": 0.00080324,
        "meta_inclination": 97.5505,
        "meta_ra_of_asc_node": 195.6735,
        "meta_arg_of_pericenter": 189.2453,
        "meta_mean_anomaly": 170.8616,
        "meta_ephemeris_type": 0,
        "meta_classification_type": "U",
        "meta_norad_cat_id": 40010,
        "meta_element_set_no": 999,
        "meta_rev_at_epoch": 62200,
        "meta_bstar": 0.00014267975,
        "meta_mean_motion_dot": 1.172e-05,
        "meta_mean_motion_ddot": 0,
        "tle_line1": "1 40010U 14033A   25351.61074881  .00001172  00000+0  14268-3 0  9991",
        "tle_line2": "2 40010  97.5505 195.6735 0008032 189.2453 170.8616 14.85178619622008"
      },
      "geometry": {
        "type": "Point",
        "coordinates": [
          28.9916456104089,
          59.55329897726093
        ]
      }
    },
    {
      "type": "Feature",
      "properties": {
        "norad_id": 40011,
        "name": "HODOYOSHI-4",
        "group": "resource",
        "lat": -69.33347848361191,
        "lon": -20.029128185387744,
        "alt_km": 606.7042805266628,
        "timestamp": "2025-12-17T21:39:45.365765+00:00",
        "meta_object_name": "HODOYOSHI-4",
        "meta_object_id": "2014-033B",
        "meta_epoch": "2025-12-17T14:04:56.210880",
        "meta_mean_motion": 14.87497568,
        "meta_eccentricity": 0.00234661,
        "meta_inclination": 97.5411,
        "meta_ra_of_asc_node": 180.2313,
        "meta_arg_of_pericenter": 184.3403,
        "meta_mean_anomaly": 175.7614,
        "meta_ephemeris_type": 0,
        "meta_classification_type": "U",
        "meta_norad_cat_id": 40011,
        "meta_element_set_no": 999,
        "meta_rev_at_epoch": 62180,
        "meta_bstar": 7.8149831e-05,
        "meta_mean_motion_dot": 6.6e-06,
        "meta_mean_motion_ddot": 0,
        "tle_line1": "1 40011U 14033B   25351.58676170  .00000660  00000+0  78150-4 0  9999",
        "tle_line2": "2 40011  97.5411 180.2313 0023466 184.3403 175.7614 14.87497568621804"
      },
      "geometry": {
        "type": "Point",
        "coordinates": [
          -20.029128185387744,
          -69.33347848361191
        ]
      }
    },
    {
      "type": "Feature",
      "properties": {
        "norad_id": 40013,
        "name": "DEIMOS-2",
        "group": "resource",
        "lat": 30.007263676954395,
        "lon": 51.95802371537968,
        "alt_km": 586.5044430198486,
        "timestamp": "2025-12-17T21:39:45.365774+00:00",
        "meta_object_name": "DEIMOS-2",
        "meta_object_id": "2014-033D",
        "meta_epoch": "2025-12-17T16:10:09.475392",
        "meta_mean_motion": 14.92992417,
        "meta_eccentricity": 0.00011562,
        "meta_inclination": 97.6064,
        "meta_ra_of_asc_node": 227.3105,
        "meta_arg_of_pericenter": 110.8359,
        "meta_mean_anomaly": 249.2985,
        "meta_ephemeris_type": 0,
        "meta_classification_type": "U",
        "meta_norad_cat_id": 40013,
        "meta_element_set_no": 999,
        "meta_rev_at_epoch": 61063,
        "meta_bstar": 0.0001692061,
        "meta_mean_motion_dot": 1.704e-05,
        "meta_mean_motion_ddot": 0,
        "tle_line1": "1 40013U 14033D   25351.67372078  .00001704  00000+0  16921-3 0  9998",
        "tle_line2": "2 40013  97.6064 227.3105 0001156 110.8359 249.2985 14.92992417610635"
      },
      "geometry": {
        "type": "Point",
        "coordinates": [
          51.95802371537968,
          30.007263676954395
        ]
      }
    },
    {
      "type": "Feature",
      "properties": {
        "norad_id": 40015,
        "name": "HODOYOSHI-3",
        "group": "resource",
        "lat": 53.42470280193124,
        "lon": -12.092197912166958,
        "alt_km": 614.6996153559267,
        "timestamp": "2025-12-17T21:39:45.365783+00:00",
        "meta_object_name": "HODOYOSHI-3",
        "meta_object_id": "2014-033F",
        "meta_epoch": "2025-12-17T11:23:27.268224",
        "meta_mean_motion": 14.84823051,
        "meta_eccentricity": 0.00320769,
        "meta_inclination": 97.6202,
        "meta_ra_of_asc_node": 157.1038,
        "meta_arg_of_pericenter": 231.7568,
        "meta_mean_anomaly": 128.0759,
        "meta_ephemeris_type": 0,
        "meta_classification_type": "U",
        "meta_norad_cat_id": 40015,
        "meta_element_set_no": 999,
        "meta_rev_at_epoch": 62065,
        "meta_bstar": 0.00017492566,
        "meta_mean_motion_dot": 1.446e-05,
        "meta_mean_motion_ddot": 0,
        "tle_line1": "1 40015U 14033F   25351.47462116  .00001446  00000+0  17493-3 0  9999",
        "tle_line2": "2 40015  97.6202 157.1038 0032076 231.7568 128.0759 14.84823051620650"
      },
      "geometry": {
        "type": "Point",
        "coordinates": [
          -12.092197912166958,
          53.42470280193124
        ]
      }
    },
    {
      "type": "Feature",
      "properties": {
        "norad_id": 40053,
        "name": "SPOT 7",
        "group": "resource",
        "lat": 56.82754206151601,
        "lon": -113.57206238763328,
        "alt_km": 684.4681460648271,
        "timestamp": "2025-12-17T21:39:45.365791+00:00",
        "meta_object_name": "SPOT 7",
        "meta_object_id": "2014-034A",
        "meta_epoch": "2025-12-17T16:10:23.524032",
        "meta_mean_motion": 14.60740267,
        "meta_eccentricity": 0.00015512,
        "meta_inclination": 98.0907,
        "meta_ra_of_asc_node": 53.6359,
        "meta_arg_of_pericenter": 84.9506,
        "meta_mean_anomaly": 275.1872,
        "meta_ephemeris_type": 0,
        "meta_classification_type": "U",
        "meta_norad_cat_id": 40053,
        "meta_element_set_no": 999,
        "meta_rev_at_epoch": 61063,
        "meta_bstar": 9.3089736e-05,
        "meta_mean_motion_dot": 4.08e-06,
        "meta_mean_motion_ddot": 0,
        "tle_line1": "1 40053U 14034A   25351.67388338  .00000408  00000+0  93090-4 0  9992",
        "tle_line2": "2 40053  98.0907  53.6359 0001551  84.9506 275.1872 14.60740267610637"
      },
      "geometry": {
        "type": "Point",
        "coordinates": [
          -113.57206238763328,
          56.82754206151601
        ]
      }
    },
    {
      "type": "Feature",
      "properties": {
        "norad_id": 40072,
        "name": "SKYSAT-B",
        "group": "resource",
        "lat": -11.083853571320246,
        "lon": 114.23022257951868,
        "alt_km": 608.0397657545582,
        "timestamp": "2025-12-17T21:39:45.365800+00:00",
        "meta_object_name": "SKYSAT-B",
        "meta_object_id": "2014-037D",
        "meta_epoch": "2025-12-17T14:20:53.822688",
        "meta_mean_motion": 14.87344577,
        "meta_eccentricity": 0.00064522,
        "meta_inclination": 98.3617,
        "meta_ra_of_asc_node": 295.5605,
        "meta_arg_of_pericenter": 136.2321,
        "meta_mean_anomaly": 223.9406,
        "meta_ephemeris_type": 0,
        "meta_classification_type": "U",
        "meta_norad_cat_id": 40072,
        "meta_element_set_no": 999,
        "meta_rev_at_epoch": 61896,
        "meta_bstar": 0.000166146,
        "meta_mean_motion_dot": 1.44e-05,
        "meta_mean_motion_ddot": 0,
        "tle_line1": "1 40072U 14037D   25351.59784517  .00001440  00000+0  16615-3 0  9990",
        "tle_line2": "2 40072  98.3617 295.5605 0006452 136.2321 223.9406 14.87344577618962"
      },
      "geometry": {
        "type": "Point",
        "coordinates": [
          114.23022257951868,
          -11.083853571320246
        ]
      }
    },
    {
      "type": "Feature",
      "properties": {
        "norad_id": 40115,
        "name": "WORLDVIEW-3 (WV-3)",
        "group": "resource",
        "lat": 47.105844479705816,
        "lon": 55.56555972494746,
        "alt_km": 609.6281597772913,
        "timestamp": "2025-12-17T21:39:45.365809+00:00",
        "meta_object_name": "WORLDVIEW-3 (WV-3)",
        "meta_object_id": "2014-048A",
        "meta_epoch": "2025-12-17T14:58:55.660512",
        "meta_mean_motion": 14.8552365,
        "meta_eccentricity": 0.00051619,
        "meta_inclination": 97.8612,
        "meta_ra_of_asc_node": 63.8431,
        "meta_arg_of_pericenter": 169.1037,
        "meta_mean_anomaly": 191.0291,
        "meta_ephemeris_type": 0,
        "meta_classification_type": "U",
        "meta_norad_cat_id": 40115,
        "meta_element_set_no": 999,
        "meta_rev_at_epoch": 61496,
        "meta_bstar": 0.00011282131,
        "meta_mean_motion_dot": 9.21e-06,
        "meta_mean_motion_ddot": 0,
        "tle_line1": "1 40115U 14048A   25351.62425533  .00000921  00000+0  11282-3 0  9992",
        "tle_line2": "2 40115  97.8612  63.8431 0005161 169.1037 191.0291 14.85523650614969"
      },
      "geometry": {
        "type": "Point",
        "coordinates": [
          55.56555972494746,
          47.105844479705816
        ]
      }
    }
  ]
}